{
  "type": "FeatureCollection",
  "features": [
    {
      "type": "Feature",
      "properties": {
        "norad_id": 50032,
        "name": "COSMOS 1408 DEB",
        "group": "cosmos-1408-debris",
        "lat": -79.46228690865307,
        "lon": -88.92017474955392,
        "alt_km": 437.7617178981327,
        "timestamp": "2025-12-24T11:33:00.287200+00:00",
        "meta_object_name": "COSMOS 1408 DEB",
        "meta_object_id": "1982-092RU",
        "meta_epoch": "2025-12-24T02:39:02.736576",
        "meta_mean_motion": 15.45803659,
        "meta_eccentricity": 0.0016397,
        "meta_inclination": 82.5629,
        "meta_ra_of_asc_node": 46.8537,
        "meta_arg_of_pericenter": 166.5773,
        "meta_mean_anomaly": 193.5915,
        "meta_ephemeris_type": 0,
        "meta_classification_type": "U",
        "meta_norad_cat_id": 50032,
        "meta_element_set_no": 999,
        "meta_rev_at_epoch": 22779,
        "meta_bstar": 0.00010877,
        "meta_mean_motion_dot": 5.336e-05,
        "meta_mean_motion_ddot": 0,
        "tle_line1": "1 50032U 82092RU  25358.11044834  .00005336  00000+0  10877-3 0  9991",
        "tle_line2": "2 50032  82.5629  46.8537 0016397 166.5773 193.5915 15.45803659227794"
      },
      "geometry": {
        "type": "Point",
        "coordinates": [
          -88.92017474955392,
          -79.46228690865307
        ]
      }
    },
    {
      "type": "Feature",
      "properties": {
        "norad_id": 50058,
        "name": "COSMOS 1408 DEB",
        "group": "cosmos-1408-debris",
        "lat": 6.478761494185698,
        "lon": -123.7976880670696,
        "alt_km": 380.4657997699169,
        "timestamp": "2025-12-24T11:33:00.287223+00:00",
        "meta_object_name": "COSMOS 1408 DEB",
        "meta_object_id": "1982-092SW",
        "meta_epoch": "2025-12-24T03:08:20.815008",
        "meta_mean_motion": 15.64775502,
        "meta_eccentricity": 0.0015899,
        "meta_inclination": 82.6116,
        "meta_ra_of_asc_node": 57.4139,
        "meta_arg_of_pericenter": 60.5164,
        "meta_mean_anomaly": 299.7678,
        "meta_ephemeris_type": 0,
        "meta_classification_type": "U",
        "meta_norad_cat_id": 50058,
        "meta_element_set_no": 999,
        "meta_rev_at_epoch": 22982,
        "meta_bstar": 0.00031674,
        "meta_mean_motion_dot": 0.00031076,
        "meta_mean_motion_ddot": 0,
        "tle_line1": "1 50058U 82092SW  25358.13079647  .00031076  00000+0  31674-3 0  9999",
        "tle_line2": "2 50058  82.6116  57.4139 0015899  60.5164 299.7678 15.64775502229820"
      },
      "geometry": {
        "type": "Point",
        "coordinates": [
          -123.7976880670696,
          6.478761494185698
        ]
      }
    },
    {
      "type": "Feature",
      "properties": {
        "norad_id": 50404,
        "name": "COSMOS 1408 DEB",
        "group": "cosmos-1408-debris",
        "lat": -16.65738074777387,
        "lon": -159.35326247768876,
        "alt_km": 638.9588046026201,
        "timestamp": "2025-12-24T11:33:00.287237+00:00",
        "meta_object_name": "COSMOS 1408 DEB",
        "meta_object_id": "1982-092ADS",
        "meta_epoch": "2025-12-24T00:32:03.906816",
        "meta_mean_motion": 15.15534968,
        "meta_eccentricity": 0.0167278,
        "meta_inclination": 82.2021,
        "meta_ra_of_asc_node": 203.468,
        "meta_arg_of_pericenter": 160.1266,
        "meta_mean_anomaly": 200.6591,
        "meta_ephemeris_type": 0,
        "meta_classification_type": "U",
        "meta_norad_cat_id": 50404,
        "meta_element_set_no": 999,
        "meta_rev_at_epoch": 21364,
        "meta_bstar": 0.0031114,
        "meta_mean_motion_dot": 0.0008508,
        "meta_mean_motion_ddot": 0,
        "tle_line1": "1 50404U 82092ADS 25358.02226744  .00085080  00000+0  31114-2 0  9996",
        "tle_line2": "2 50404  82.2021 203.4680 0167278 160.1266 200.6591 15.15534968213642"
      },
      "geometry": {
        "type": "Point",
        "coordinates": [
          -159.35326247768876,
          -16.65738074777387
        ]
      }
    },
    {
      "type": "Feature",
      "properties": {
        "norad_id": 50621,
        "name": "COSMOS 1408 DEB",
        "group": "cosmos-1408-debris",
        "lat": -53.04975447098429,
        "lon": -108.05507120699428,
        "alt_km": 413.514743976315,
        "timestamp": "2025-12-24T11:33:00.287249+00:00",
        "meta_object_name": "COSMOS 1408 DEB",
        "meta_object_id": "1982-092ALR",
        "meta_epoch": "2025-12-23T14:30:12.364992",
        "meta_mean_motion": 15.57201045,
        "meta_eccentricity": 0.00290955,
        "meta_inclination": 82.5688,
        "meta_ra_of_asc_node": 62.8659,
        "meta_arg_of_pericenter": 113.3373,
        "meta_mean_anomaly": 247.0948,
        "meta_ephemeris_type": 0,
        "meta_classification_type": "U",
        "meta_norad_cat_id": 50621,
        "meta_element_set_no": 999,
        "meta_rev_at_epoch": 22419,
        "meta_bstar": 0.00035622213,
        "meta_mean_motion_dot": 0.00026487,
        "meta_mean_motion_ddot": 0,
        "tle_line1": "1 50621U 82092ALR 25357.60430978  .00026487  00000+0  35622-3 0  9991",
        "tle_line2": "2 50621  82.5688  62.8659 0029095 113.3373 247.0948 15.57201045224197"
      },
      "geometry": {
        "type": "Point",
        "coordinates": [
          -108.05507120699428,
          -53.04975447098429
        ]
      }
    }
  ]
}